{"type": "FeatureCollection", "features": [ {"type": "Feature", "properties": {"norad_id": 30688, "name": "FENGYUN 1C DEB", "group": "fengyun-1c-debris", "lat": -66.16706558977637, "lon": 71.952233356369, "alt_km": 783.5926083717795, "timestamp": "2025-12-04T07:39:36.413342+00:00", "meta": {"OBJECT_NAME": "FENGYUN 1C DEB", "OBJECT_ID": "1999-025AQW", "EPOCH": "2025-12-03T03:37:05.668320", "MEAN_MOTION": 14.32560008, "ECCENTRICITY": 0.00149147, "INCLINATION": 98.7031, "RA_OF_ASC_NODE": 50.4905, "ARG_OF_PERICENTER": 346.5915, "MEAN_ANOMALY": 43.5186, "EPHEMERIS_TYPE": 0, "CLASSIFICATION_TYPE": "U", "NORAD_CAT_ID": 30688, "ELEMENT_SET_NO": 999, "REV_AT_EPOCH": 97123, "BSTAR": 0.0021990073, "MEAN_MOTION_DOT": 5.933e-05, "MEAN_MOTION_DDOT": 0}, "tle": {"line1": "1 30688U 99025AQW 25337.15076005  .00005933  00000+0  21990-2 0  9996", "line2": "2 30688  98.7031  50.4905 0014914 346.5915  43.5186 14.32560008971238"}}, "geometry": {"type": "Point", "coordinates": [71.952233356369, -66.16706558977637]}}, {"type": "Feature", "properties": {"norad_id": 30689, "name": "FENGYUN 1C DEB", "group": "fengyun-1c-debris", "lat": -20.923519565753047, "lon": 141.44030186196613, "alt_km": 835.5244824136535, "timestamp": "2025-12-04T07:39:36.413351+00:00", "meta": {"OBJECT_NAME": "FENGYUN 1C DEB", "OBJECT_ID": "1999-025AQX", "EPOCH": "2025-12-03T22:28:27.456096", "MEAN_MOTION": 14.11748662, "ECCENTRICITY": 0.01115151, "INCLINATION": 98.7074, "RA_OF_ASC_NODE": 324.4278, "ARG_OF_PERICENTER": 128.1488, "MEAN_ANOMALY": 287.5683, "EPHEMERIS_TYPE": 0, "CLASSIFICATION_TYPE": "U", "NORAD_CAT_ID": 30689, "ELEMENT_SET_NO": 999, "REV_AT_EPOCH": 96766, "BSTAR": 0.00055107771, "MEAN_MOTION_DOT": 1.023e-05, "MEAN_MOTION_DDOT": 0}, "tle": {"line1": "1 30689U 99025AQX 25337.93642889  .00001023  00000+0  55108-3 0  9997", "line2": "2 30689  98.7074 324.4278 0111515 128.1488 287.5683 14.11748662967662"}}, "geometry": {"type": "Point", "coordinates": [141.44030186196613, -20.923519565753047]}}, {"type": "Feature", "properties": {"norad_id": 30690, "name": "FENGYUN 1C DEB", "group": "fengyun-1c-debris", "lat": 5.803699562863733, "lon": 89.61272321296813, "alt_km": 867.6344567747274, "timestamp": "2025-12-04T07:39:36.413361+00:00", "meta": {"OBJECT_NAME": "FENGYUN 1C DEB", "OBJECT_ID": "1999-025AQY", "EPOCH": "2025-12-03T01:49:40.421856", "MEAN_MOTION": 14.02265789, "ECCENTRICITY": 0.01044125, "INCLINATION": 99.1596, "RA_OF_ASC_NODE": 267.4241, "ARG_OF_PERICENTER": 102.4532, "MEAN_ANOMALY": 278.9121, "EPHEMERIS_TYPE": 0, "CLASSIFICATION_TYPE": "U", "NORAD_CAT_ID": 30690, "ELEMENT_SET_NO": 999, "REV_AT_EPOCH": 95572, "BSTAR": 0.0014473509, "MEAN_MOTION_DOT": 2.282e-05, "MEAN_MOTION_DDOT": 0}, "tle": {"line1": "1 30690U 99025AQY 25337.07616229  .00002282  00000+0  14474-2 0  9991", "line2": "2 30690  99.1596 267.4241 0104412 102.4532 278.9121 14.02265789955726"}}, "geometry": {"type": "Point", "coordinates": [89.61272321296813, 5.803699562863733]}}, {"type": "Feature", "properties": {"norad_id": 30691, "name": "FENGYUN 1C DEB", "group": "fengyun-1c-debris", "lat": -18.253751664405254, "lon": 167.3291886626021, "alt_km": 880.6661010226535, "timestamp": "2025-12-04T07:39:36.413375+00:00", "meta": {"OBJECT_NAME": "FENGYUN 1C DEB", "OBJECT_ID": "1999-025AQZ", "EPOCH": "2025-12-02T12:14:22.660800", "MEAN_MOTION": 13.89386426, "ECCENTRICITY": 0.01391392, "INCLINATION": 98.7431, "RA_OF_ASC_NODE": 348.5393, "ARG_OF_PERICENTER": 261.2387, "MEAN_ANOMALY": 254.2199, "EPHEMERIS_TYPE": 0, "CLASSIFICATION_TYPE": "U", "NORAD_CAT_ID": 30691, "ELEMENT_SET_NO": 999, "REV_AT_EPOCH": 94974, "BSTAR": 0.0014193693, "MEAN_MOTION_DOT": 1.83e-05, "MEAN_MOTION_DDOT": 0}, "tle": {"line1": "1 30691U 99025AQZ 25336.50998450  .00001830  00000+0  14194-2 0  9995", "line2": "2 30691  98.7431 348.5393 0139139 261.2387 254.2199 13.89386426949748"}}, "geometry": {"type": "Point", "coordinates": [167.3291886626021, -18.253751664405254]}}, {"type": "Feature", "properties": {"norad_id": 30693, "name": "FENGYUN 1C DEB", "group": "fengyun-1c-debris", "lat": -47.01790627811919, "lon": -26.86542474171622, "alt_km": 865.5799288220933, "timestamp": "2025-12-04T07:39:36.413396+00:00", "meta": {"OBJECT_NAME": "FENGYUN 1C DEB", "OBJECT_ID": "1999-025ARB", "EPOCH": "2025-12-03T21:41:30.251904", "MEAN_MOTION": 14.13270522, "ECCENTRICITY": 0.00288559, "INCLINATION": 98.6856, "RA_OF_ASC_NODE": 323.2908, "ARG_OF_PERICENTER": 192.7504, "MEAN_ANOMALY": 167.2942, "EPHEMERIS_TYPE": 0, "CLASSIFICATION_TYPE": "U", "NORAD_CAT_ID": 30693, "ELEMENT_SET_NO": 999, "REV_AT_EPOCH": 96810, "BSTAR": 0.00053396902, "MEAN_MOTION_DOT": 9.62e-06, "MEAN_MOTION_DDOT": 0}, "tle": {"line1": "1 30693U 99025ARB 25337.90382236  .00000962  00000+0  53397-3 0  9995", "line2": "2 30693  98.6856 323.2908 0028855 192.7504 167.2942 14.13270522968100"}}, "geometry": {"type": "Point", "coordinates": [-26.86542474171622, -47.01790627811919]}}, {"type": "Feature", "properties": {"norad_id": 30694, "name": "FENGYUN 1C DEB", "group": "fengyun-1c-debris", "lat": 24.036895468909663, "lon": 127.4375466033451, "alt_km": 699.7019481598591, "timestamp": "2025-12-04T07:39:36.413414+00:00", "meta": {"OBJECT_NAME": "FENGYUN 1C DEB", "OBJECT_ID": "1999-025ARC", "EPOCH": "2025-12-03T08:19:56.034048", "MEAN_MOTION": 14.85960567, "ECCENTRICITY": 0.013247, "INCLINATION": 99.0454, "RA_OF_ASC_NODE": 302.2589, "ARG_OF_PERICENTER": 324.917, "MEAN_ANOMALY": 34.3369, "EPHEMERIS_TYPE": 0, "CLASSIFICATION_TYPE": "U", "NORAD_CAT_ID": 30694, "ELEMENT_SET_NO": 999, "REV_AT_EPOCH": 99962, "BSTAR": 0.0022947, "MEAN_MOTION_DOT": 0.00023484, "MEAN_MOTION_DDOT": 0}, "tle": {"line1": "1 30694U 99025ARC 25337.34717632  .00023484  00000+0  22947-2 0  9996", "line2": "2 30694  99.0454 302.2589 0132470 324.9170  34.3369 14.85960567999621"}}, "geometry": {"type": "Point", "coordinates": [127.4375466033451, 24.036895468909663]}}, {"type": "Feature", "properties": {"norad_id": 30696, "name": "FENGYUN 1C DEB", "group": "fengyun-1c-debris", "lat": -80.27485679197106, "lon": 86.89477609655178, "alt_km": 785.8425839249221, "timestamp": "2025-12-04T07:39:36.413428+00:00", "meta": {"OBJECT_NAME": "FENGYUN 1C DEB", "OBJECT_ID": "1999-025ARE", "EPOCH": "2025-12-03T02:16:54.665760", "MEAN_MOTION": 14.44663695, "ECCENTRICITY": 0.008994, "INCLINATION": 98.3905, "RA_OF_ASC_NODE": 26.2365, "ARG_OF_PERICENTER": 154.6507, "MEAN_ANOMALY": 236.8531, "EPHEMERIS_TYPE": 0, "CLASSIFICATION_TYPE": "U", "NORAD_CAT_ID": 30696, "ELEMENT_SET_NO": 999, "REV_AT_EPOCH": 98165, "BSTAR": 0.001204056, "MEAN_MOTION_DOT": 4.34e-05, "MEAN_MOTION_DDOT": 0}, "tle": {"line1": "1 30696U 99025ARE 25337.09507715  .00004340  00000+0  12041-2 0  9993", "line2": "2 30696  98.3905  26.2365 0089940 154.6507 236.8531 14.44663695981657"}}, "geometry": {"type": "Point", "coordinates": [86.89477609655178, -80.27485679197106]}}, {"type": "Feature", "properties": {"norad_id": 30697, "name": "FENGYUN 1C DEB", "group": "fengyun-1c-debris", "lat": -81.08584419215488, "lon": 125.47810471622704, "alt_km": 824.0874896593396, "timestamp": "2025-12-04T07:39:36.413446+00:00", "meta": {"OBJECT_NAME": "FENGYUN 1C DEB", "OBJECT_ID": "1999-025ARF", "EPOCH": "2025-12-02T10:16:56.460864", "MEAN_MOTION": 14.13419891, "ECCENTRICITY": 0.00877171, "INCLINATION": 98.9085, "RA_OF_ASC_NODE": 33.3149, "ARG_OF_PERICENTER": 214.0225, "MEAN_ANOMALY": 159.6866, "EPHEMERIS_TYPE": 0, "CLASSIFICATION_TYPE": "U", "NORAD_CAT_ID": 30697, "ELEMENT_SET_NO": 999, "REV_AT_EPOCH": 96115, "BSTAR": 0.0019833151, "MEAN_MOTION_DOT": 3.823e-05, "MEAN_MOTION_DDOT": 0}, "tle": {"line1": "1 30697U 99025ARF 25336.42843126  .00003823  00000+0  19833-2 0  9990", "line2": "2 30697  98.9085  33.3149 0087717 214.0225 159.6866 14.13419891961159"}}, "geometry": {"type": "Point", "coordinates": [125.47810471622704, -81.08584419215488]}}, {"type": "Feature", "properties": {"norad_id": 30699, "name": "FENGYUN 1C DEB", "group": "fengyun-1c-debris", "lat": 69.57291062290204, "lon": -56.8982721855345, "alt_km": 732.2248175249251, "timestamp": "2025-12-04T07:39:36.413460+00:00", "meta": {"OBJECT_NAME": "FENGYUN 1C DEB", "OBJECT_ID": "1999-025ARH", "EPOCH": "2025-12-02T07:01:24.932352", "MEAN_MOTION": 14.46647919, "ECCENTRICITY": 0.0003688, "INCLINATION": 99.3116, "RA_OF_ASC_NODE": 94.7383, "ARG_OF_PERICENTER": 279.4254, "MEAN_ANOMALY": 80.6518, "EPHEMERIS_TYPE": 0, "CLASSIFICATION_TYPE": "U", "NORAD_CAT_ID": 30699, "ELEMENT_SET_NO": 999, "REV_AT_EPOCH": 97462, "BSTAR": 0.002914, "MEAN_MOTION_DOT": 0.00010486, "MEAN_MOTION_DDOT": 0}, "tle": {"line1": "1 30699U 99025ARH 25336.29264968  .00010486  00000+0  29140-2 0  9993", "line2": "2 30699  99.3116  94.7383 0003688 279.4254  80.6518 14.46647919974627"}}, "geometry": {"type": "Point", "coordinates": [-56.8982721855345, 69.57291062290204]}}, {"type": "Feature", "properties": {"norad_id": 30700, "name": "FENGYUN 1C DEB", "group": "fengyun-1c-debris", "lat": 0.6096812693621199, "lon": -173.03368323685652, "alt_km": 754.3371028849242, "timestamp": "2025-12-04T07:39:36.413470+00:00", "meta": {"OBJECT_NAME": "FENGYUN 1C DEB", "OBJECT_ID": "1999-025ARJ", "EPOCH": "2025-12-03T07:12:35.856000", "MEAN_MOTION": 14.23780889, "ECCENTRICITY": 0.0086694, "INCLINATION": 98.5427, "RA_OF_ASC_NODE": 5.885, "ARG_OF_PERICENTER": 170.6255, "MEAN_ANOMALY": 189.6567, "EPHEMERIS_TYPE": 0, "CLASSIFICATION_TYPE": "U", "NORAD_CAT_ID": 30700, "ELEMENT_SET_NO": 999, "REV_AT_EPOCH": 97435, "BSTAR": 0.00026931, "MEAN_MOTION_DOT": 5.98e-06, "MEAN_MOTION_DDOT": 0}, "tle": {"line1": "1 30700U 99025ARJ 25337.30041500  .00000598  00000+0  26931-3 0  9993", "line2": "2 30700  98.5427   5.8850 0086694 170.6255 189.6567 14.23780889974352"}}, "geometry": {"type": "Point", "coordinates": [-173.03368323685652, 0.6096812693621199]}}]}